STARLINK-36399          
1 67665U 26022T   26061.65453313  .00210482  00000+0  13752-2 0  9993
2 67665  97.2833  95.3161 0001545  96.1983 263.9458 15.75229490  4443
STARLINK-36365          
1 67666U 26022U   26061.65312396  .00148742  00000+0  97966-3 0  9998
2 67666  97.2833  95.3181 0001869  86.6035 273.5444 15.75216926  4449
STARLINK-36622          
1 67667U 26022V   26061.65136350  .00157629  00000+0  10383-2 0  9994
2 67667  97.2834  95.3209 0002364  75.3688 284.7839 15.75189059  4440
STARLINK-36625          
1 67668U 26022W   26061.64994997  .00103955  00000+0  68929-3 0  9996
2 67668  97.2842  95.3231 0002003  87.5303 272.6192 15.75191862  4447
STARLINK-36639          
1 67669U 26022X   26061.64817935  .00195875  00000+0  12814-2 0  9996
2 67669  97.2837  95.3241 0000976  96.1618 263.9759 15.75240464  4440
STARLINK-36596          
1 67670U 26022Y   26061.58289365  .00258417  00000+0  16746-2 0  9991
2 67670  97.2831  95.2608 0001518  78.8753 281.2683 15.75285711  4434
STARLINK-36297          
1 67671U 26022Z   26061.64430184  .00215793  00000+0  14107-2 0  9995
2 67671  97.2841  95.3297 0001605  82.8255 277.3193 15.75201009  4441
STARLINK-36616          
1 67672U 26022AA  26061.64570804  .00337896  00000+0  21772-2 0  9995
2 67672  97.2849  95.3279 0000753 139.7129 220.4192 15.75196006  4443
COSMOS 2600             
1 67674U 26023A   26059.29522708  .00071571  00000+0  32746-3 0  9995
2 67674  96.6452 135.2352 0003248  47.0444 313.1099 15.83528492  3562
2026-023B               
1 67675U 26023B   26061.36101917  .00012638  00000+0  54032-3 0  9993
2 67675  96.6376 135.1582 0019037 156.9230 203.2868 15.22784330  3749
2026-023C               
1 67676U 26023C   26061.88549653  .00014979  00000+0  63712-3 0  9999
2 67676  96.6408 135.6442 0020141 145.5559 214.6990 15.22904678  3989
2026-023D               
1 67677U 26023D   26061.88779478  .00014298  00000+0  61151-3 0  9999
2 67677  96.6439 135.6322 0020357 150.3983 209.8413 15.22722176  3814
2026-023E               
1 67678U 26023E   26061.88592333  .00016667  00000+0  70893-3 0  9998
2 67678  96.6332 135.6150 0020139 149.8839 210.3562 15.22883546  3818
2026-023F               
1 67679U 26023F   26061.88357988  .00016486  00000+0  69734-3 0  9995
2 67679  96.6341 138.1146 0022017 144.7195 215.5506 15.23036058  3801
2026-023G               
1 67680U 26023G   26061.88424027  .00016797  00000+0  71056-3 0  9991
2 67680  96.6268 138.0984 0023569 141.3106 218.9827 15.22996005  3807
2026-023H               
1 67681U 26023H   26061.81858087  .00013793  00000+0  58522-3 0  9998
2 67681  96.6415 138.0687 0023643 140.8965 219.3988 15.22934108  3799
2026-023J               
1 67682U 26023J   26061.81754161  .00012581  00000+0  53255-3 0  9999
2 67682  96.6370 138.0739 0023788 137.8231 222.4844 15.23027292  3794
