[{"OBJECT_NAME":"STARLINK-36399","OBJECT_ID":"2026-022T","EPOCH":"2026-03-02T15:42:31.662432","MEAN_MOTION":15.7522949,"ECCENTRICITY":0.0001545,"INCLINATION":97.2833,"RA_OF_ASC_NODE":95.3161,"ARG_OF_PERICENTER":96.1983,"MEAN_ANOMALY":263.9458,"EPHEMERIS_TYPE":0,"CLASSIFICATION_TYPE":"U","NORAD_CAT_ID":67665,"ELEMENT_SET_NO":999,"REV_AT_EPOCH":444,"BSTAR":0.0013752,"MEAN_MOTION_DOT":0.00210482,"MEAN_MOTION_DDOT":0},{"OBJECT_NAME":"STARLINK-36365","OBJECT_ID":"2026-022U","EPOCH":"2026-03-02T15:40:29.910144","MEAN_MOTION":15.75216926,"ECCENTRICITY":0.0001869,"INCLINATION":97.2833,"RA_OF_ASC_NODE":95.3181,"ARG_OF_PERICENTER":86.6035,"MEAN_ANOMALY":273.5444,"EPHEMERIS_TYPE":0,"CLASSIFICATION_TYPE":"U","NORAD_CAT_ID":67666,"ELEMENT_SET_NO":999,"REV_AT_EPOCH":444,"BSTAR":0.00097966,"MEAN_MOTION_DOT":0.00148742,"MEAN_MOTION_DDOT":0},{"OBJECT_NAME":"STARLINK-36622","OBJECT_ID":"2026-022V","EPOCH":"2026-03-02T15:37:57.806400","MEAN_MOTION":15.75189059,"ECCENTRICITY":0.0002364,"INCLINATION":97.2834,"RA_OF_ASC_NODE":95.3209,"ARG_OF_PERICENTER":75.3688,"MEAN_ANOMALY":284.7839,"EPHEMERIS_TYPE":0,"CLASSIFICATION_TYPE":"U","NORAD_CAT_ID":67667,"ELEMENT_SET_NO":999,"REV_AT_EPOCH":444,"BSTAR":0.0010383,"MEAN_MOTION_DOT":0.00157629,"MEAN_MOTION_DDOT":0},{"OBJECT_NAME":"STARLINK-36625","OBJECT_ID":"2026-022W","EPOCH":"2026-03-02T15:35:55.677408","MEAN_MOTION":15.75191862,"ECCENTRICITY":0.0002003,"INCLINATION":97.2842,"RA_OF_ASC_NODE":95.3231,"ARG_OF_PERICENTER":87.5303,"MEAN_ANOMALY":272.6192,"EPHEMERIS_TYPE":0,"CLASSIFICATION_TYPE":"U","NORAD_CAT_ID":67668,"ELEMENT_SET_NO":999,"REV_AT_EPOCH":444,"BSTAR":0.00068929,"MEAN_MOTION_DOT":0.00103955,"MEAN_MOTION_DDOT":0},{"OBJECT_NAME":"STARLINK-36639","OBJECT_ID":"2026-022X","EPOCH":"2026-03-02T15:33:22.695840","MEAN_MOTION":15.75240464,"ECCENTRICITY":9.76e-5,"INCLINATION":97.2837,"RA_OF_ASC_NODE":95.3241,"ARG_OF_PERICENTER":96.1618,"MEAN_ANOMALY":263.9759,"EPHEMERIS_TYPE":0,"CLASSIFICATION_TYPE":"U","NORAD_CAT_ID":67669,"ELEMENT_SET_NO":999,"REV_AT_EPOCH":444,"BSTAR":0.0012814,"MEAN_MOTION_DOT":0.00195875,"MEAN_MOTION_DDOT":0},{"OBJECT_NAME":"STARLINK-36596","OBJECT_ID":"2026-022Y","EPOCH":"2026-03-02T13:59:22.011360","MEAN_MOTION":15.75285711,"ECCENTRICITY":0.0001518,"INCLINATION":97.2831,"RA_OF_ASC_NODE":95.2608,"ARG_OF_PERICENTER":78.8753,"MEAN_ANOMALY":281.2683,"EPHEMERIS_TYPE":0,"CLASSIFICATION_TYPE":"U","NORAD_CAT_ID":67670,"ELEMENT_SET_NO":999,"REV_AT_EPOCH":443,"BSTAR":0.0016746,"MEAN_MOTION_DOT":0.00258417,"MEAN_MOTION_DDOT":0},{"OBJECT_NAME":"STARLINK-36297","OBJECT_ID":"2026-022Z","EPOCH":"2026-03-02T15:27:47.678976","MEAN_MOTION":15.75201009,"ECCENTRICITY":0.0001605,"INCLINATION":97.2841,"RA_OF_ASC_NODE":95.3297,"ARG_OF_PERICENTER":82.8255,"MEAN_ANOMALY":277.3193,"EPHEMERIS_TYPE":0,"CLASSIFICATION_TYPE":"U","NORAD_CAT_ID":67671,"ELEMENT_SET_NO":999,"REV_AT_EPOCH":444,"BSTAR":0.0014107,"MEAN_MOTION_DOT":0.00215793,"MEAN_MOTION_DDOT":0},{"OBJECT_NAME":"STARLINK-36616","OBJECT_ID":"2026-022AA","EPOCH":"2026-03-02T15:29:49.174656","MEAN_MOTION":15.75196006,"ECCENTRICITY":7.53e-5,"INCLINATION":97.2849,"RA_OF_ASC_NODE":95.3279,"ARG_OF_PERICENTER":139.7129,"MEAN_ANOMALY":220.4192,"EPHEMERIS_TYPE":0,"CLASSIFICATION_TYPE":"U","NORAD_CAT_ID":67672,"ELEMENT_SET_NO":999,"REV_AT_EPOCH":444,"BSTAR":0.0021772,"MEAN_MOTION_DOT":0.00337896,"MEAN_MOTION_DDOT":0},{"OBJECT_NAME":"COSMOS 2600","OBJECT_ID":"2026-023A","EPOCH":"2026-02-28T07:05:07.619712","MEAN_MOTION":15.83528492,"ECCENTRICITY":0.00032481,"INCLINATION":96.6452,"RA_OF_ASC_NODE":135.2352,"ARG_OF_PERICENTER":47.0444,"MEAN_ANOMALY":313.1099,"EPHEMERIS_TYPE":0,"CLASSIFICATION_TYPE":"U","NORAD_CAT_ID":67674,"ELEMENT_SET_NO":999,"REV_AT_EPOCH":356,"BSTAR":0.00032745834,"MEAN_MOTION_DOT":0.00071571,"MEAN_MOTION_DDOT":0},{"OBJECT_NAME":"2026-023B","OBJECT_ID":"2026-023B","EPOCH":"2026-03-02T08:39:52.056288","MEAN_MOTION":15.2278433,"ECCENTRICITY":0.00190379,"INCLINATION":96.6376,"RA_OF_ASC_NODE":135.1582,"ARG_OF_PERICENTER":156.923,"MEAN_ANOMALY":203.2868,"EPHEMERIS_TYPE":0,"CLASSIFICATION_TYPE":"U","NORAD_CAT_ID":67675,"ELEMENT_SET_NO":999,"REV_AT_EPOCH":374,"BSTAR":0.00054032032,"MEAN_MOTION_DOT":0.00012638,"MEAN_MOTION_DDOT":0},{"OBJECT_NAME":"2026-023C","OBJECT_ID":"2026-023C","EPOCH":"2026-03-02T21:15:06.900192","MEAN_MOTION":15.22904678,"ECCENTRICITY":0.0020141,"INCLINATION":96.6408,"RA_OF_ASC_NODE":135.6442,"ARG_OF_PERICENTER":145.5559,"MEAN_ANOMALY":214.699,"EPHEMERIS_TYPE":0,"CLASSIFICATION_TYPE":"U","NORAD_CAT_ID":67676,"ELEMENT_SET_NO":999,"REV_AT_EPOCH":398,"BSTAR":0.00063712,"MEAN_MOTION_DOT":0.00014979,"MEAN_MOTION_DDOT":0},{"OBJECT_NAME":"2026-023D","OBJECT_ID":"2026-023D","EPOCH":"2026-03-02T21:18:25.468992","MEAN_MOTION":15.22722176,"ECCENTRICITY":0.0020357,"INCLINATION":96.6439,"RA_OF_ASC_NODE":135.6322,"ARG_OF_PERICENTER":150.3983,"MEAN_ANOMALY":209.8413,"EPHEMERIS_TYPE":0,"CLASSIFICATION_TYPE":"U","NORAD_CAT_ID":67677,"ELEMENT_SET_NO":999,"REV_AT_EPOCH":381,"BSTAR":0.00061151,"MEAN_MOTION_DOT":0.00014298,"MEAN_MOTION_DDOT":0},{"OBJECT_NAME":"2026-023E","OBJECT_ID":"2026-023E","EPOCH":"2026-03-02T21:15:43.775712","MEAN_MOTION":15.22883546,"ECCENTRICITY":0.0020139,"INCLINATION":96.6332,"RA_OF_ASC_NODE":135.615,"ARG_OF_PERICENTER":149.8839,"MEAN_ANOMALY":210.3562,"EPHEMERIS_TYPE":0,"CLASSIFICATION_TYPE":"U","NORAD_CAT_ID":67678,"ELEMENT_SET_NO":999,"REV_AT_EPOCH":381,"BSTAR":0.00070893,"MEAN_MOTION_DOT":0.00016667,"MEAN_MOTION_DDOT":0},{"OBJECT_NAME":"2026-023F","OBJECT_ID":"2026-023F","EPOCH":"2026-03-02T21:12:21.301632","MEAN_MOTION":15.23036058,"ECCENTRICITY":0.0022017,"INCLINATION":96.6341,"RA_OF_ASC_NODE":138.1146,"ARG_OF_PERICENTER":144.7195,"MEAN_ANOMALY":215.5506,"EPHEMERIS_TYPE":0,"CLASSIFICATION_TYPE":"U","NORAD_CAT_ID":67679,"ELEMENT_SET_NO":999,"REV_AT_EPOCH":380,"BSTAR":0.00069734,"MEAN_MOTION_DOT":0.00016486,"MEAN_MOTION_DDOT":0},{"OBJECT_NAME":"2026-023G","OBJECT_ID":"2026-023G","EPOCH":"2026-03-02T21:13:18.359328","MEAN_MOTION":15.22996005,"ECCENTRICITY":0.0023569,"INCLINATION":96.6268,"RA_OF_ASC_NODE":138.0984,"ARG_OF_PERICENTER":141.3106,"MEAN_ANOMALY":218.9827,"EPHEMERIS_TYPE":0,"CLASSIFICATION_TYPE":"U","NORAD_CAT_ID":67680,"ELEMENT_SET_NO":999,"REV_AT_EPOCH":380,"BSTAR":0.00071056,"MEAN_MOTION_DOT":0.00016797,"MEAN_MOTION_DDOT":0},{"OBJECT_NAME":"2026-023H","OBJECT_ID":"2026-023H","EPOCH":"2026-03-02T19:38:45.387168","MEAN_MOTION":15.22934108,"ECCENTRICITY":0.0023643,"INCLINATION":96.6415,"RA_OF_ASC_NODE":138.0687,"ARG_OF_PERICENTER":140.8965,"MEAN_ANOMALY":219.3988,"EPHEMERIS_TYPE":0,"CLASSIFICATION_TYPE":"U","NORAD_CAT_ID":67681,"ELEMENT_SET_NO":999,"REV_AT_EPOCH":379,"BSTAR":0.00058522,"MEAN_MOTION_DOT":0.00013793,"MEAN_MOTION_DDOT":0},{"OBJECT_NAME":"2026-023J","OBJECT_ID":"2026-023J","EPOCH":"2026-03-02T19:37:15.595104","MEAN_MOTION":15.23027292,"ECCENTRICITY":0.0023788,"INCLINATION":96.637,"RA_OF_ASC_NODE":138.0739,"ARG_OF_PERICENTER":137.8231,"MEAN_ANOMALY":222.4844,"EPHEMERIS_TYPE":0,"CLASSIFICATION_TYPE":"U","NORAD_CAT_ID":67682,"ELEMENT_SET_NO":999,"REV_AT_EPOCH":379,"BSTAR":0.00053255,"MEAN_MOTION_DOT":0.00012581,"MEAN_MOTION_DDOT":0}]
